SL-16 R/B               
1 22803U 93059B   26083.93418365 -.00000026  00000+0  10752-4 0  9996
2 22803  70.9927 338.9814 0017628 194.4960 165.5660 14.17235411681692
ARIANE 40 R/B           
1 22830U 93061H   26083.92158756  .00000215  00000+0  94617-4 0  9994
2 22830  98.4889 152.5067 0009811 234.8259 125.2007 14.32868741696283
COSMOS 2278             
1 23087U 94023A   26083.87400702 -.00000247  00000+0 -10460-3 0  9993
2 23087  71.0528 143.3323 0009012 348.7724  11.3197 14.14376963646957
SL-16 R/B               
1 23088U 94023B   26083.98436661  .00000284  00000+0  17146-3 0  9996
2 23088  71.0007  38.7643 0005457 270.9992  89.0505 14.15012454648257
SL-16 R/B               
1 23343U 94074B   26083.82955421  .00000456  00000+0  67738-4 0  9993
2 23343  97.7088 114.0329 0006996 160.1018  13.0541 14.79424414689482
SL-16 R/B               
1 23405U 94077B   26083.96000733  .00000102  00000+0  76620-4 0  9995
2 23405  70.9841 320.3652 0002188 198.3088 161.7957 14.15568712618395
ARIANE 40+ R/B          
1 23561U 95021B   26083.98839523  .00000292  00000+0  10684-3 0  9994
2 23561  98.4470 155.2618 0007966  96.9532  76.0499 14.39783055621448
SL-16 R/B               
1 23705U 95058B   26083.89705937 -.00000181  00000+0 -68382-4 0  9993
2 23705  71.0214 148.3302 0010144  97.5629 262.6647 14.15500443570005
SL-16 R/B               
1 24298U 96051B   26083.89679410  .00000088  00000+0  74462-4 0  9991
2 24298  70.7592 143.0533 0013806 123.7907 236.4530 14.12419856523793
ORBVIEW 2 (SEASTAR)     
1 24883U 97037A   26083.89168794  .00000280  00000+0  11363-3 0  9998
2 24883  98.8594 248.6084 0002592  39.7104 320.4270 14.35505148510655
SL-16 R/B               
1 25400U 98043G   26083.88685867  .00000078  00000+0  51603-4 0  9993
2 25400  98.8280  37.3604 0009406 336.5343  23.5406 14.26053161441151
SL-16 R/B               
1 25407U 98045B   26083.61798753 -.00000177  00000+0 -65442-4 0  9990
2 25407  71.0113 150.1827 0007758 344.4427  15.6457 14.16195288429213
ISS (ZARYA)             
1 25544U 98067A   26083.80895787  .00009690  00000+0  18680-3 0  9990
2 25544  51.6344 357.6177 0006258 228.0573 131.9883 15.48525391558676
CZ-4B R/B               
1 25732U 99025C   26083.85547065  .00000040  00000+0  40230-4 0  9999
2 25732  98.6596 127.7758 0036093 302.1685 231.9060 14.18268247390317
OKEAN-O                 
1 25860U 99039A   26083.92795198  .00000672  00000+0  94891-4 0  9999
2 25860  97.9411 143.6622 0000915  84.5778 275.5539 14.80358838436649
SL-16 R/B               
1 25861U 99039B   26083.75843421  .00000546  00000+0  75996-4 0  9999
2 25861  97.9934 142.8303 0014242 203.6646 156.3914 14.81751071439095
DELTA 2 R/B             
1 25876U 99041E   26083.73272117  .00000540  00000+0  12656-3 0  9991
2 25876  51.7605 241.1883 0502625  32.8010 330.3093 14.11870834365153
